STARLINK-35343          
1 67334U 26003A   26026.83335647 -.02048445  00000+0 -15029-1 0  9995
2 67334  42.9988 106.9540 0001515 256.3236  56.5580 15.75202750  3881
STARLINK-36486          
1 67335U 26003B   26026.83335647 -.02061535  00000+0 -15137-1 0  9991
2 67335  42.9992 106.9493 0001359 261.4672  53.3400 15.75206842  3940
STARLINK-36480          
1 67336U 26003C   26026.83335647 -.02073657  00000+0 -15231-1 0  9995
2 67336  42.9991 106.9448 0001528 264.3755  52.3463 15.75216160  3944
STARLINK-36410          
1 67337U 26003D   26026.83335647 -.02067726  00000+0 -15184-1 0  9993
2 67337  42.9990 106.9395 0001560 281.5021  37.1378 15.75212421  3940
STARLINK-36413          
1 67338U 26003E   26026.83335647 -.02068350  00000+0 -15190-1 0  9995
2 67338  42.9992 106.9350 0001487 260.3311  60.2252 15.75212270  3949
STARLINK-36451          
1 67339U 26003F   26026.83335647 -.02047028  00000+0 -15025-1 0  9992
2 67339  42.9991 106.9297 0001353 259.9096  62.5738 15.75193943  3944
STARLINK-36339          
1 67340U 26003G   26026.83335647 -.02075402  00000+0 -15244-1 0  9994
2 67340  42.9991 106.9256 0001579 264.7610  59.6293 15.75217567  3949
STARLINK-36453          
1 67341U 26003H   26026.66667824 -.01365335  00000+0 -98094-2 0  9992
2 67341  42.9990 107.9333 0001024 283.3939 176.6209 15.75445060  3917
STARLINK-36432          
1 67342U 26003J   26026.66667824 -.01368380  00000+0 -98321-2 0  9999
2 67342  42.9992 107.9284 0001029 284.3479 177.5787 15.75449401  3903
STARLINK-36458          
1 67343U 26003K   26026.58497050  .00231102  00000+0  14634-2 0  9996
2 67343  42.9984 108.4175 0001643 269.4445  90.6236 15.75090760  2340
STARLINK-36422          
1 67344U 26003L   26026.58464255  .00408879  00000+0  25278-2 0  9991
2 67344  42.9980 108.4130 0001015 352.6765   7.4089 15.75130370  2345
STARLINK-35676          
1 67345U 26003M   26026.58430177  .00421099  00000+0  25973-2 0  9999
2 67345  42.9978 108.4109 0001097 312.5701  47.5076 15.75148963  2342
