CCSDS_OMM_VERS = 2.0
CREATION_DATE  = 
ORIGINATOR     = 

OBJECT_NAME    = STARLINK-35343
OBJECT_ID      = 2026-003A
CENTER_NAME    = EARTH
REF_FRAME      = TEME
TIME_SYSTEM    = UTC
MEAN_ELEMENT_THEORY = SGP/SGP4

EPOCH          = 2026-01-26T20:00:01.999008
MEAN_MOTION    = 15.75202750
ECCENTRICITY   = .0001515
INCLINATION    = 42.9988
RA_OF_ASC_NODE = 106.9540
ARG_OF_PERICENTER = 256.3236
MEAN_ANOMALY   = 56.5580

EPHEMERIS_TYPE = 0
CLASSIFICATION_TYPE = U
NORAD_CAT_ID   = 67334
ELEMENT_SET_NO = 999
REV_AT_EPOCH   = 388
BSTAR          = -.15029E-1
MEAN_MOTION_DOT = -.2048445E-1
MEAN_MOTION_DDOT = 0

CCSDS_OMM_VERS = 2.0
CREATION_DATE  = 
ORIGINATOR     = 

OBJECT_NAME    = STARLINK-36486
OBJECT_ID      = 2026-003B
CENTER_NAME    = EARTH
REF_FRAME      = TEME
TIME_SYSTEM    = UTC
MEAN_ELEMENT_THEORY = SGP/SGP4

EPOCH          = 2026-01-26T20:00:01.999008
MEAN_MOTION    = 15.75206842
ECCENTRICITY   = .0001359
INCLINATION    = 42.9992
RA_OF_ASC_NODE = 106.9493
ARG_OF_PERICENTER = 261.4672
MEAN_ANOMALY   = 53.3400

EPHEMERIS_TYPE = 0
CLASSIFICATION_TYPE = U
NORAD_CAT_ID   = 67335
ELEMENT_SET_NO = 999
REV_AT_EPOCH   = 394
BSTAR          = -.15137E-1
MEAN_MOTION_DOT = -.2061535E-1
MEAN_MOTION_DDOT = 0

CCSDS_OMM_VERS = 2.0
CREATION_DATE  = 
ORIGINATOR     = 

OBJECT_NAME    = STARLINK-36480
OBJECT_ID      = 2026-003C
CENTER_NAME    = EARTH
REF_FRAME      = TEME
TIME_SYSTEM    = UTC
MEAN_ELEMENT_THEORY = SGP/SGP4

EPOCH          = 2026-01-26T20:00:01.999008
MEAN_MOTION    = 15.75216160
ECCENTRICITY   = .0001528
INCLINATION    = 42.9991
RA_OF_ASC_NODE = 106.9448
ARG_OF_PERICENTER = 264.3755
MEAN_ANOMALY   = 52.3463

EPHEMERIS_TYPE = 0
CLASSIFICATION_TYPE = U
NORAD_CAT_ID   = 67336
ELEMENT_SET_NO = 999
REV_AT_EPOCH   = 394
BSTAR          = -.15231E-1
MEAN_MOTION_DOT = -.2073657E-1
MEAN_MOTION_DDOT = 0

CCSDS_OMM_VERS = 2.0
CREATION_DATE  = 
ORIGINATOR     = 

OBJECT_NAME    = STARLINK-36410
OBJECT_ID      = 2026-003D
CENTER_NAME    = EARTH
REF_FRAME      = TEME
TIME_SYSTEM    = UTC
MEAN_ELEMENT_THEORY = SGP/SGP4

EPOCH          = 2026-01-26T20:00:01.999008
MEAN_MOTION    = 15.75212421
ECCENTRICITY   = .000156
INCLINATION    = 42.9990
RA_OF_ASC_NODE = 106.9395
ARG_OF_PERICENTER = 281.5021
MEAN_ANOMALY   = 37.1378

EPHEMERIS_TYPE = 0
CLASSIFICATION_TYPE = U
NORAD_CAT_ID   = 67337
ELEMENT_SET_NO = 999
REV_AT_EPOCH   = 394
BSTAR          = -.15184E-1
MEAN_MOTION_DOT = -.2067726E-1
MEAN_MOTION_DDOT = 0

CCSDS_OMM_VERS = 2.0
CREATION_DATE  = 
ORIGINATOR     = 

OBJECT_NAME    = STARLINK-36413
OBJECT_ID      = 2026-003E
CENTER_NAME    = EARTH
REF_FRAME      = TEME
TIME_SYSTEM    = UTC
MEAN_ELEMENT_THEORY = SGP/SGP4

EPOCH          = 2026-01-26T20:00:01.999008
MEAN_MOTION    = 15.75212270
ECCENTRICITY   = .0001487
INCLINATION    = 42.9992
RA_OF_ASC_NODE = 106.9350
ARG_OF_PERICENTER = 260.3311
MEAN_ANOMALY   = 60.2252

EPHEMERIS_TYPE = 0
CLASSIFICATION_TYPE = U
NORAD_CAT_ID   = 67338
ELEMENT_SET_NO = 999
REV_AT_EPOCH   = 394
BSTAR          = -.1519E-1
MEAN_MOTION_DOT = -.206835E-1
MEAN_MOTION_DDOT = 0

CCSDS_OMM_VERS = 2.0
CREATION_DATE  = 
ORIGINATOR     = 

OBJECT_NAME    = STARLINK-36451
OBJECT_ID      = 2026-003F
CENTER_NAME    = EARTH
REF_FRAME      = TEME
TIME_SYSTEM    = UTC
MEAN_ELEMENT_THEORY = SGP/SGP4

EPOCH          = 2026-01-26T20:00:01.999008
MEAN_MOTION    = 15.75193943
ECCENTRICITY   = .0001353
INCLINATION    = 42.9991
RA_OF_ASC_NODE = 106.9297
ARG_OF_PERICENTER = 259.9096
MEAN_ANOMALY   = 62.5738

EPHEMERIS_TYPE = 0
CLASSIFICATION_TYPE = U
NORAD_CAT_ID   = 67339
ELEMENT_SET_NO = 999
REV_AT_EPOCH   = 394
BSTAR          = -.15025E-1
MEAN_MOTION_DOT = -.2047028E-1
MEAN_MOTION_DDOT = 0

CCSDS_OMM_VERS = 2.0
CREATION_DATE  = 
ORIGINATOR     = 

OBJECT_NAME    = STARLINK-36339
OBJECT_ID      = 2026-003G
CENTER_NAME    = EARTH
REF_FRAME      = TEME
TIME_SYSTEM    = UTC
MEAN_ELEMENT_THEORY = SGP/SGP4

EPOCH          = 2026-01-26T20:00:01.999008
MEAN_MOTION    = 15.75217567
ECCENTRICITY   = .0001579
INCLINATION    = 42.9991
RA_OF_ASC_NODE = 106.9256
ARG_OF_PERICENTER = 264.7610
MEAN_ANOMALY   = 59.6293

EPHEMERIS_TYPE = 0
CLASSIFICATION_TYPE = U
NORAD_CAT_ID   = 67340
ELEMENT_SET_NO = 999
REV_AT_EPOCH   = 394
BSTAR          = -.15244E-1
MEAN_MOTION_DOT = -.2075402E-1
MEAN_MOTION_DDOT = 0

CCSDS_OMM_VERS = 2.0
CREATION_DATE  = 
ORIGINATOR     = 

OBJECT_NAME    = STARLINK-36453
OBJECT_ID      = 2026-003H
CENTER_NAME    = EARTH
REF_FRAME      = TEME
TIME_SYSTEM    = UTC
MEAN_ELEMENT_THEORY = SGP/SGP4

EPOCH          = 2026-01-26T16:00:00.999936
MEAN_MOTION    = 15.75445060
ECCENTRICITY   = .0001024
INCLINATION    = 42.9990
RA_OF_ASC_NODE = 107.9333
ARG_OF_PERICENTER = 283.3939
MEAN_ANOMALY   = 176.6209

EPHEMERIS_TYPE = 0
CLASSIFICATION_TYPE = U
NORAD_CAT_ID   = 67341
ELEMENT_SET_NO = 999
REV_AT_EPOCH   = 391
BSTAR          = -.98094E-2
MEAN_MOTION_DOT = -.1365335E-1
MEAN_MOTION_DDOT = 0

CCSDS_OMM_VERS = 2.0
CREATION_DATE  = 
ORIGINATOR     = 

OBJECT_NAME    = STARLINK-36432
OBJECT_ID      = 2026-003J
CENTER_NAME    = EARTH
REF_FRAME      = TEME
TIME_SYSTEM    = UTC
MEAN_ELEMENT_THEORY = SGP/SGP4

EPOCH          = 2026-01-26T16:00:00.999936
MEAN_MOTION    = 15.75449401
ECCENTRICITY   = .0001029
INCLINATION    = 42.9992
RA_OF_ASC_NODE = 107.9284
ARG_OF_PERICENTER = 284.3479
MEAN_ANOMALY   = 177.5787

EPHEMERIS_TYPE = 0
CLASSIFICATION_TYPE = U
NORAD_CAT_ID   = 67342
ELEMENT_SET_NO = 999
REV_AT_EPOCH   = 390
BSTAR          = -.98321E-2
MEAN_MOTION_DOT = -.136838E-1
MEAN_MOTION_DDOT = 0

CCSDS_OMM_VERS = 2.0
CREATION_DATE  = 
ORIGINATOR     = 

OBJECT_NAME    = STARLINK-36458
OBJECT_ID      = 2026-003K
CENTER_NAME    = EARTH
REF_FRAME      = TEME
TIME_SYSTEM    = UTC
MEAN_ELEMENT_THEORY = SGP/SGP4

EPOCH          = 2026-01-26T14:02:21.451200
MEAN_MOTION    = 15.75090760
ECCENTRICITY   = .0001643
INCLINATION    = 42.9984
RA_OF_ASC_NODE = 108.4175
ARG_OF_PERICENTER = 269.4445
MEAN_ANOMALY   = 90.6236

EPHEMERIS_TYPE = 0
CLASSIFICATION_TYPE = U
NORAD_CAT_ID   = 67343
ELEMENT_SET_NO = 999
REV_AT_EPOCH   = 234
BSTAR          = .14634E-2
MEAN_MOTION_DOT = .231102E-2
MEAN_MOTION_DDOT = 0

CCSDS_OMM_VERS = 2.0
CREATION_DATE  = 
ORIGINATOR     = 

OBJECT_NAME    = STARLINK-36422
OBJECT_ID      = 2026-003L
CENTER_NAME    = EARTH
REF_FRAME      = TEME
TIME_SYSTEM    = UTC
MEAN_ELEMENT_THEORY = SGP/SGP4

EPOCH          = 2026-01-26T14:01:53.116320
MEAN_MOTION    = 15.75130370
ECCENTRICITY   = .0001015
INCLINATION    = 42.9980
RA_OF_ASC_NODE = 108.4130
ARG_OF_PERICENTER = 352.6765
MEAN_ANOMALY   = 7.4089

EPHEMERIS_TYPE = 0
CLASSIFICATION_TYPE = U
NORAD_CAT_ID   = 67344
ELEMENT_SET_NO = 999
REV_AT_EPOCH   = 234
BSTAR          = .25278E-2
MEAN_MOTION_DOT = .408879E-2
MEAN_MOTION_DDOT = 0

CCSDS_OMM_VERS = 2.0
CREATION_DATE  = 
ORIGINATOR     = 

OBJECT_NAME    = STARLINK-35676
OBJECT_ID      = 2026-003M
CENTER_NAME    = EARTH
REF_FRAME      = TEME
TIME_SYSTEM    = UTC
MEAN_ELEMENT_THEORY = SGP/SGP4

EPOCH          = 2026-01-26T14:01:23.672928
MEAN_MOTION    = 15.75148963
ECCENTRICITY   = .0001097
INCLINATION    = 42.9978
RA_OF_ASC_NODE = 108.4109
ARG_OF_PERICENTER = 312.5701
MEAN_ANOMALY   = 47.5076

EPHEMERIS_TYPE = 0
CLASSIFICATION_TYPE = U
NORAD_CAT_ID   = 67345
ELEMENT_SET_NO = 999
REV_AT_EPOCH   = 234
BSTAR          = .25973E-2
MEAN_MOTION_DOT = .421099E-2
MEAN_MOTION_DDOT = 0

